IRIDIUM 116             
1 43072U 17083C   24108.87721776  .00000310  00000+0  10372-3 0  9994
2 43072  86.3913 292.2954 0001928  89.2745 270.8672 14.34221139330891
IRIDIUM 130             
1 43073U 17083D   24109.05482174  .00000302  00000+0  10083-3 0  9992
2 43073  86.3921 292.4198 0002216  87.5046 272.6403 14.34219186330867
IRIDIUM 151             
1 43074U 17083E   24108.88991024  .00000315  00000+0  10545-3 0  9999
2 43074  86.3916 292.3300 0002087 102.3745 257.7684 14.34219663330869
IRIDIUM 134             
1 43075U 17083F   24109.55587949  .00000323  00000+0  10814-3 0  9990
2 43075  86.3915 292.0484 0002172  85.5421 274.6022 14.34219937330922
IRIDIUM 137             
1 43076U 17083G   24108.87088315  .00000310  00000+0  10373-3 0  9994
2 43076  86.3917 292.4122 0001694  97.8430 262.2958 14.34219170330898
IRIDIUM 141             
1 43077U 17083H   24108.86452694  .00000013  00000+0 -23057-5 0  9995
2 43077  86.3909 292.2901 0002062  92.6705 267.4727 14.34217279330890
IRIDIUM 153             
1 43078U 17083J   24108.95624246  .00000186  00000+0  59452-4 0  9997
2 43078  86.3938 260.6826 0002568  99.9309 260.2177 14.34218825332013
IRIDIUM 131             
1 43079U 17083K   24108.57278401  .00000289  00000+0  96285-4 0  9993
2 43079  86.3918 292.5458 0002008  93.8539 266.2886 14.34218892330783
